CCSDS_OMM_VERS = 2.0
CREATION_DATE  = 
ORIGINATOR     = 

OBJECT_NAME    = UNKNOWN
OBJECT_ID      = 
CENTER_NAME    = EARTH
REF_FRAME      = TEME
TIME_SYSTEM    = UTC
MEAN_ELEMENT_THEORY = SGP/SGP4

EPOCH          = 2026-02-28T03:04:37.975584
MEAN_MOTION    = 9.31869695
ECCENTRICITY   = .2550447
INCLINATION    = 66.0832
RA_OF_ASC_NODE = 348.5495
ARG_OF_PERICENTER = 147.2723
MEAN_ANOMALY   = 231.5722

EPHEMERIS_TYPE = 0
CLASSIFICATION_TYPE = U
NORAD_CAT_ID   = 81036
ELEMENT_SET_NO = 999
REV_AT_EPOCH   = 2894
BSTAR          = .21211E-1
MEAN_MOTION_DOT = .7744E-4
MEAN_MOTION_DDOT = 0

CCSDS_OMM_VERS = 2.0
CREATION_DATE  = 
ORIGINATOR     = 

OBJECT_NAME    = UNKNOWN
OBJECT_ID      = 
CENTER_NAME    = EARTH
REF_FRAME      = TEME
TIME_SYSTEM    = UTC
MEAN_ELEMENT_THEORY = SGP/SGP4

EPOCH          = 2026-02-23T19:28:23.085120
MEAN_MOTION    = 13.83995640
ECCENTRICITY   = .0562252
INCLINATION    = 65.7703
RA_OF_ASC_NODE = 204.6380
ARG_OF_PERICENTER = 272.6795
MEAN_ANOMALY   = 81.0070

EPHEMERIS_TYPE = 0
CLASSIFICATION_TYPE = U
NORAD_CAT_ID   = 81052
ELEMENT_SET_NO = 999
REV_AT_EPOCH   = 61042
BSTAR          = .14908E-2
MEAN_MOTION_DOT = .5694E-4
MEAN_MOTION_DDOT = 0

CCSDS_OMM_VERS = 2.0
CREATION_DATE  = 
ORIGINATOR     = 

OBJECT_NAME    = UNKNOWN
OBJECT_ID      = 
CENTER_NAME    = EARTH
REF_FRAME      = TEME
TIME_SYSTEM    = UTC
MEAN_ELEMENT_THEORY = SGP/SGP4

EPOCH          = 2026-02-25T16:26:42.552672
MEAN_MOTION    = 13.61083637
ECCENTRICITY   = .0062221
INCLINATION    = 100.3809
RA_OF_ASC_NODE = 327.3693
ARG_OF_PERICENTER = 220.9683
MEAN_ANOMALY   = 138.6772

EPHEMERIS_TYPE = 0
CLASSIFICATION_TYPE = U
NORAD_CAT_ID   = 81069
ELEMENT_SET_NO = 999
REV_AT_EPOCH   = 52612
BSTAR          = .3673E-2
MEAN_MOTION_DOT = .2776E-4
MEAN_MOTION_DDOT = 0

CCSDS_OMM_VERS = 2.0
CREATION_DATE  = 
ORIGINATOR     = 

OBJECT_NAME    = UNKNOWN
OBJECT_ID      = 
CENTER_NAME    = EARTH
REF_FRAME      = TEME
TIME_SYSTEM    = UTC
MEAN_ELEMENT_THEORY = SGP/SGP4

EPOCH          = 2026-02-17T06:30:23.802048
MEAN_MOTION    = 11.22475388
ECCENTRICITY   = .0191832
INCLINATION    = 65.1105
RA_OF_ASC_NODE = 153.8460
ARG_OF_PERICENTER = 348.1361
MEAN_ANOMALY   = 40.1331

EPHEMERIS_TYPE = 0
CLASSIFICATION_TYPE = U
NORAD_CAT_ID   = 81078
ELEMENT_SET_NO = 999
REV_AT_EPOCH   = 50209
BSTAR          = .12039E-1
MEAN_MOTION_DOT = .365E-5
MEAN_MOTION_DDOT = 0

CCSDS_OMM_VERS = 2.0
CREATION_DATE  = 
ORIGINATOR     = 

OBJECT_NAME    = UNKNOWN
OBJECT_ID      = 
CENTER_NAME    = EARTH
REF_FRAME      = TEME
TIME_SYSTEM    = UTC
MEAN_ELEMENT_THEORY = SGP/SGP4

EPOCH          = 2026-02-27T18:10:32.094624
MEAN_MOTION    = 7.58316800
ECCENTRICITY   = .3848687
INCLINATION    = 62.8892
RA_OF_ASC_NODE = 306.7573
ARG_OF_PERICENTER = 0.2631
MEAN_ANOMALY   = 359.9263

EPHEMERIS_TYPE = 0
CLASSIFICATION_TYPE = U
NORAD_CAT_ID   = 81111
ELEMENT_SET_NO = 999
REV_AT_EPOCH   = 27777
BSTAR          = .2891E-2
MEAN_MOTION_DOT = .14391E-3
MEAN_MOTION_DDOT = 0

CCSDS_OMM_VERS = 2.0
CREATION_DATE  = 
ORIGINATOR     = 

OBJECT_NAME    = UNKNOWN
OBJECT_ID      = 
CENTER_NAME    = EARTH
REF_FRAME      = TEME
TIME_SYSTEM    = UTC
MEAN_ELEMENT_THEORY = SGP/SGP4

EPOCH          = 2026-02-24T16:34:08.626368
MEAN_MOTION    = 13.81781366
ECCENTRICITY   = .00039
INCLINATION    = 99.9646
RA_OF_ASC_NODE = 146.4350
ARG_OF_PERICENTER = 211.3899
MEAN_ANOMALY   = 148.7020

EPHEMERIS_TYPE = 0
CLASSIFICATION_TYPE = U
NORAD_CAT_ID   = 81123
ELEMENT_SET_NO = 999
REV_AT_EPOCH   = 61649
BSTAR          = .10172E-2
MEAN_MOTION_DOT = .104E-4
MEAN_MOTION_DDOT = 0

CCSDS_OMM_VERS = 2.0
CREATION_DATE  = 
ORIGINATOR     = 

OBJECT_NAME    = UNKNOWN
OBJECT_ID      = 
CENTER_NAME    = EARTH
REF_FRAME      = TEME
TIME_SYSTEM    = UTC
MEAN_ELEMENT_THEORY = SGP/SGP4

EPOCH          = 2026-02-28T02:13:13.367712
MEAN_MOTION    = 12.93014394
ECCENTRICITY   = .0024138
INCLINATION    = 90.2539
RA_OF_ASC_NODE = 5.7758
ARG_OF_PERICENTER = 182.0461
MEAN_ANOMALY   = 178.0563

EPHEMERIS_TYPE = 0
CLASSIFICATION_TYPE = U
NORAD_CAT_ID   = 81134
ELEMENT_SET_NO = 999
REV_AT_EPOCH   = 47260
BSTAR          = .6081E-3
MEAN_MOTION_DOT = .173E-5
MEAN_MOTION_DDOT = 0

CCSDS_OMM_VERS = 2.0
CREATION_DATE  = 
ORIGINATOR     = 

OBJECT_NAME    = UNKNOWN
OBJECT_ID      = 
CENTER_NAME    = EARTH
REF_FRAME      = TEME
TIME_SYSTEM    = UTC
MEAN_ELEMENT_THEORY = SGP/SGP4

EPOCH          = 2026-02-17T19:40:08.722560
MEAN_MOTION    = 13.75735350
ECCENTRICITY   = .0059845
INCLINATION    = 100.3950
RA_OF_ASC_NODE = 261.9225
ARG_OF_PERICENTER = 108.2143
MEAN_ANOMALY   = 252.5529

EPHEMERIS_TYPE = 0
CLASSIFICATION_TYPE = U
NORAD_CAT_ID   = 81161
ELEMENT_SET_NO = 999
REV_AT_EPOCH   = 56535
BSTAR          = .71615E-3
MEAN_MOTION_DOT = .65E-5
MEAN_MOTION_DDOT = 0

CCSDS_OMM_VERS = 2.0
CREATION_DATE  = 
ORIGINATOR     = 

OBJECT_NAME    = UNKNOWN
OBJECT_ID      = 
CENTER_NAME    = EARTH
REF_FRAME      = TEME
TIME_SYSTEM    = UTC
MEAN_ELEMENT_THEORY = SGP/SGP4

EPOCH          = 2026-02-27T16:13:04.063872
MEAN_MOTION    = 13.81876063
ECCENTRICITY   = .0022142
INCLINATION    = 82.9260
RA_OF_ASC_NODE = 308.3557
ARG_OF_PERICENTER = 1.9286
MEAN_ANOMALY   = 358.1955

EPHEMERIS_TYPE = 0
CLASSIFICATION_TYPE = U
NORAD_CAT_ID   = 81219
ELEMENT_SET_NO = 999
REV_AT_EPOCH   = 61814
BSTAR          = .50906E-3
MEAN_MOTION_DOT = .562E-5
MEAN_MOTION_DDOT = 0

CCSDS_OMM_VERS = 2.0
CREATION_DATE  = 
ORIGINATOR     = 

OBJECT_NAME    = UNKNOWN
OBJECT_ID      = 
CENTER_NAME    = EARTH
REF_FRAME      = TEME
TIME_SYSTEM    = UTC
MEAN_ELEMENT_THEORY = SGP/SGP4

EPOCH          = 2026-02-20T20:08:19.541184
MEAN_MOTION    = 14.41906947
ECCENTRICITY   = .0066005
INCLINATION    = 70.5206
RA_OF_ASC_NODE = 119.3022
ARG_OF_PERICENTER = 259.4059
MEAN_ANOMALY   = 99.9636

EPHEMERIS_TYPE = 0
CLASSIFICATION_TYPE = U
NORAD_CAT_ID   = 81228
ELEMENT_SET_NO = 999
REV_AT_EPOCH   = 63619
BSTAR          = .15939E-2
MEAN_MOTION_DOT = .5308E-4
MEAN_MOTION_DDOT = 0

CCSDS_OMM_VERS = 2.0
CREATION_DATE  = 
ORIGINATOR     = 

OBJECT_NAME    = UNKNOWN
OBJECT_ID      = 
CENTER_NAME    = EARTH
REF_FRAME      = TEME
TIME_SYSTEM    = UTC
MEAN_ELEMENT_THEORY = SGP/SGP4

EPOCH          = 2026-02-03T03:14:58.692192
MEAN_MOTION    = 14.01943944
ECCENTRICITY   = .0072343
INCLINATION    = 100.3808
RA_OF_ASC_NODE = 108.4103
ARG_OF_PERICENTER = 290.6335
MEAN_ANOMALY   = 68.7078

EPHEMERIS_TYPE = 0
CLASSIFICATION_TYPE = U
NORAD_CAT_ID   = 81254
ELEMENT_SET_NO = 999
REV_AT_EPOCH   = 62023
BSTAR          = .25051E-2
MEAN_MOTION_DOT = .3851E-4
MEAN_MOTION_DDOT = 0

CCSDS_OMM_VERS = 2.0
CREATION_DATE  = 
ORIGINATOR     = 

OBJECT_NAME    = UNKNOWN
OBJECT_ID      = 
CENTER_NAME    = EARTH
REF_FRAME      = TEME
TIME_SYSTEM    = UTC
MEAN_ELEMENT_THEORY = SGP/SGP4

EPOCH          = 2026-02-26T14:11:27.259872
MEAN_MOTION    = 14.20164549
ECCENTRICITY   = .0207687
INCLINATION    = 98.1176
RA_OF_ASC_NODE = 115.9051
ARG_OF_PERICENTER = 162.5073
MEAN_ANOMALY   = 198.3401

EPHEMERIS_TYPE = 0
CLASSIFICATION_TYPE = U
NORAD_CAT_ID   = 81279
ELEMENT_SET_NO = 999
REV_AT_EPOCH   = 47336
BSTAR          = .46198E-3
MEAN_MOTION_DOT = .1184E-4
MEAN_MOTION_DDOT = 0

