UNKNOWN                 
1 81036U          26059.12821731  .00007744  00000+0  21211-1 0  9994
2 81036  66.0832 348.5495 2550447 147.2723 231.5722  9.31869695 28947
UNKNOWN                 
1 81052U          26054.81137830  .00005694  00000+0  14908-2 0  9991
2 81052  65.7703 204.6380 0562252 272.6795  81.0070 13.83995640610426
UNKNOWN                 
1 81069U          26056.68521473  .00002776  00000+0  36730-2 0  9991
2 81069 100.3809 327.3693 0062221 220.9683 138.6772 13.61083637526121
UNKNOWN                 
1 81078U          26048.27110882  .00000365  00000+0  12039-1 0  9992
2 81078  65.1105 153.8460 0191832 348.1361  40.1331 11.22475388502090
UNKNOWN                 
1 81111U          26058.75731591  .00014391  00000+0  28910-2 0  9990
2 81111  62.8892 306.7573 3848687   0.2631 359.9263  7.58316800277771
UNKNOWN                 
1 81123U          26055.69037762  .00001040  00000+0  10172-2 0  9990
2 81123  99.9646 146.4350 0003900 211.3899 148.7020 13.81781366616490
UNKNOWN                 
1 81134U          26059.09251583  .00000173  00000+0  60810-3 0  9990
2 81134  90.2539   5.7758 0024138 182.0461 178.0563 12.93014394472604
UNKNOWN                 
1 81161U          26048.81954540  .00000650  00000+0  71615-3 0  9996
2 81161 100.3950 261.9225 0059845 108.2143 252.5529 13.75735350565357
UNKNOWN                 
1 81219U          26058.67574148  .00000562  00000+0  50906-3 0  9999
2 81219  82.9260 308.3557 0022142   1.9286 358.1955 13.81876063618147
UNKNOWN                 
1 81228U          26051.83911506  .00005308  00000+0  15939-2 0  9992
2 81228  70.5206 119.3022 0066005 259.4059  99.9636 14.41906947636194
UNKNOWN                 
1 81254U          26034.13540153  .00003851  00000+0  25051-2 0  9998
2 81254 100.3808 108.4103 0072343 290.6335  68.7078 14.01943944620234
UNKNOWN                 
1 81279U          26057.59128773  .00001184  00000+0  46198-3 0  9993
2 81279  98.1176 115.9051 0207687 162.5073 198.3401 14.20164549473362
